NORAD_CAT_ID,OBJECT_NAME,OBJECT_TYPE,EPOCH,MEAN_MOTION,ECCENTRICITY,INCLINATION,RA_OF_ASC_NODE,ARG_OF_PERICENTER,MEAN_ANOMALY,BSTAR,MEAN_MOTION_DOT,MEAN_MOTION_DDOT,TLE_LINE0,TLE_LINE1,TLE_LINE2,SEMIMAJOR_AXIS,PERIOD,APOGEE,PERIGEE,DECAYED
49724.0,STARLINK-3219,PAYLOAD,2022-04-28 14:00:01,15.08843226,0.0001764999999999,53.2136,3.8329,50.8573,295.3738,0.0017857,0.00028248,0.0,0 STARLINK-3219,1 49724U 21115A   22118.58334491  .00028248  00000-0  17857-2 0  9991,2 49724  53.2136   3.8329 0001765  50.8573 295.3738 15.08843226  3560,6917.871,95.437,540.957,538.515,0.0
49724.0,STARLINK-3219,PAYLOAD,2022-04-29 06:00:00,15.08864148,0.000184,53.213,0.8414,42.659,326.7965,-0.0037065,-0.00058835,0.0,0 STARLINK-3219,1 49724U 21115A   22119.25001157 -.00058835  00000-0 -37065-2 0  9996,2 49724  53.2130   0.8414 0001840  42.6590 326.7965 15.08864148 23714,6917.807,95.436,540.944,538.399,0.0
49724.0,STARLINK-3219,PAYLOAD,2022-04-29 14:00:01,15.08795097,0.0001662,53.2129,359.3435,49.1599,331.906,0.0038544,0.00061515,0.0,0 STARLINK-3219,1 49724U 21115A   22119.58334491  .00061515  00000-0  38544-2 0  9992,2 49724  53.2129 359.3435 0001662  49.1599 331.9060 15.08795097  3617,6918.018,95.44,541.0319999999998,538.7330000000002,0.0
49724.0,STARLINK-3219,PAYLOAD,2022-04-29 22:00:00,15.08834412,0.0001824,53.2129,357.8488,43.6475,348.9796,-0.0026014,-0.00041446,0.0,0 STARLINK-3219,1 49724U 21115A   22119.91667824 -.00041446  00000-0 -26014-2 0  9990,2 49724  53.2129 357.8488 0001824  43.6475 348.9796 15.08834412 23813,6917.897,95.438,541.024,538.501,0.0
49724.0,STARLINK-3219,PAYLOAD,2022-04-30 14:00:01,15.08788869,0.0001745,53.2126,354.8541,49.244,6.5274,0.003314,0.00052776,0.0,0 STARLINK-3219,1 49724U 21115A   22120.58334491  .00052776  00000-0  33140-2 0  9990,2 49724  53.2126 354.8541 0001745  49.2440   6.5274 15.08788869 23916,6918.0369999999975,95.441,541.109,538.694,0.0
49724.0,STARLINK-3219,PAYLOAD,2022-04-30 22:00:00,15.08823012,0.0001964,53.2126,353.3594,45.6263,21.7029,-8.9301e-05,-1.708e-05,0.0,0 STARLINK-3219,1 49724U 21115A   22120.91667824 -.00001708  00000-0 -89301-4 0  9999,2 49724  53.2126 353.3594 0001964  45.6263  21.7029 15.08823012  3571,6917.932,95.439,541.156,538.439,0.0
49724.0,STARLINK-3219,PAYLOAD,2022-05-01 06:00:00,15.08845118,0.0001934,53.2126,351.8624,43.2443,35.6544,-0.00061304,-0.00010033,0.0,0 STARLINK-3219,1 49724U 21115A   22121.25001157 -.00010033  00000-0 -61304-3 0  9991,2 49724  53.2126 351.8624 0001934  43.2443  35.6544 15.08845118 24018,6917.865,95.437,541.068,538.3919999999998,0.0
49724.0,STARLINK-3219,PAYLOAD,2022-05-01 14:00:01,15.08841629,0.0001783,53.2127,350.3644,48.1284,42.3708,1.5824e-05,-3.6e-07,0.0,0 STARLINK-3219,1 49724U 21115A   22121.58334491 -.00000036  00000-0  15824-4 0  9995,2 49724  53.2127 350.3644 0001783  48.1284  42.3708 15.08841629  3583,6917.875,95.437,540.974,538.507,0.0
49724.0,STARLINK-3219,PAYLOAD,2022-05-01 22:00:01,15.08829899,0.0001914,53.2127,348.8696,41.9838,60.1745,-0.0023594,-0.00037633,0.0,0 STARLINK-3219,1 49724U 21115A   22121.91668981 -.00037633  00000-0 -23594-2 0  9991,2 49724  53.2127 348.8696 0001914  41.9838  60.1745 15.08829899  3577,6917.911,95.438,541.1,538.452,0.0
49724.0,STARLINK-3219,PAYLOAD,2022-05-02 14:00:01,15.08814511,0.0001761,53.2131,345.8748,45.7991,79.4347,0.0025623,0.00040699,0.0,0 STARLINK-3219,1 49724U 21115A   22122.58334491  .00040699  00000-0  25623-2 0  9990,2 49724  53.2131 345.8748 0001761  45.7991  79.4347 15.08814511 24219,6917.958000000001,95.439,541.0419999999998,538.605,0.0
49724.0,STARLINK-3219,PAYLOAD,2022-05-02 22:00:01,15.08833663,0.0001956,53.2131,344.38,41.7246,95.153,0.00021692,3.165e-05,0.0,0 STARLINK-3219,1 49724U 21115A   22122.91668981  .00003165  00000-0  21692-3 0  9991,2 49724  53.2131 344.3800 0001956  41.7246  95.1530 15.08833663  3616,6917.9,95.438,541.118,538.4119999999998,0.0
49724.0,STARLINK-3219,PAYLOAD,2022-05-03 04:00:00,15.08844601,0.0001969,53.2129,343.2575,39.458,16.0453,0.0004683,7.174e-05,0.0,0 STARLINK-3219,1 49724U 21115A   22123.16667824  .00007174  00000-0  46830-3 0  9999,2 49724  53.2129 343.2575 0001969  39.4580  16.0453 15.08844601 24308,6917.866,95.437,541.0930000000002,538.369,0.0
49724.0,STARLINK-3219,PAYLOAD,2022-05-03 14:00:01,15.08856297,0.0001854,53.2135,341.3851,48.5836,111.424,-0.00087924,-0.0001426,0.0,0 STARLINK-3219,1 49724U 21115A   22123.58334491 -.00014260  00000-0 -87924-3 0  9991,2 49724  53.2135 341.3851 0001854  48.5836 111.4240 15.08856297  3562,6917.831,95.437,540.9780000000002,538.413,0.0
49724.0,STARLINK-3219,PAYLOAD,2022-05-03 22:00:00,15.08833838,0.0002077,53.2133,339.8903,44.8003,126.8221,0.00064269,9.953e-05,0.0,0 STARLINK-3219,1 49724U 21115A   22123.91667824  .00009953  00000-0  64269-3 0  9995,2 49724  53.2133 339.8903 0002077  44.8003 126.8221 15.08833838  3568,6917.899,95.438,541.201,538.327,0.0
49724.0,STARLINK-3219,PAYLOAD,2022-05-04 06:00:02,15.08864256,0.0002003,53.2132,338.3928,45.472,137.803,-0.0013666,-0.00021987,0.0,0 STARLINK-3219,1 49724U 21115A   22124.25002315 -.00021987  00000-0 -13666-2 0  9998,2 49724  53.2132 338.3928 0002003  45.4720 137.8030 15.08864256 24471,6917.806,95.436,541.057,538.286,0.0
49724.0,STARLINK-3219,PAYLOAD,2022-05-04 14:00:01,15.08865035,0.0001938,53.2135,336.8955,52.0085,142.8155,-0.0010949,-0.00017684,0.0,0 STARLINK-3219,1 49724U 21115A   22124.58334491 -.00017684  00000-0 -10949-2 0  9997,2 49724  53.2135 336.8955 0001938  52.0085 142.8155 15.08865035  3603,6917.804,95.436,541.01,538.328,0.0
49724.0,STARLINK-3219,PAYLOAD,2022-05-04 22:00:01,15.08835271,0.0002144,53.2134,335.4006,47.508,158.9999,0.001117,0.00017532,0.0,0 STARLINK-3219,1 49724U 21115A   22124.91668981  .00017532  00000-0  11170-2 0  9995,2 49724  53.2134 335.4006 0002144  47.5080 158.9999 15.08835271  3601,6917.895,95.438,541.243,538.2769999999998,0.0
49724.0,STARLINK-3219,PAYLOAD,2022-05-05 06:00:00,15.08870665,0.0002,53.2132,333.903,47.8443,170.1927,-0.0042169,-0.00066836,0.0,0 STARLINK-3219,1 49724U 21115A   22125.25001157 -.00066836  00000-0 -42169-2 0  9994,2 49724  53.2132 333.9030 0002000  47.8443 170.1927 15.08870665 24624,6917.7869999999975,95.436,541.035,538.268,0.0
49724.0,STARLINK-3219,PAYLOAD,2022-05-05 14:00:01,15.08832308,0.0001888,53.2134,332.406,52.4002,177.2365,0.0013451,0.0002118,0.0,0 STARLINK-3219,1 49724U 21115A   22125.58334491  .00021180  00000-0  13451-2 0  9993,2 49724  53.2134 332.4060 0001888  52.4002 177.2365 15.08832308  3565,6917.904,95.438,541.075,538.4630000000002,0.0
49724.0,STARLINK-3219,PAYLOAD,2022-05-05 22:00:00,15.08832665,0.0002062,53.2131,330.9112,46.6674,194.5672,0.00087859,0.0001372,0.0,0 STARLINK-3219,1 49724U 21115A   22125.91667824  .00013720  00000-0  87859-3 0  9994,2 49724  53.2131 330.9112 0002062  46.6674 194.5672 15.08832665 24728,6917.903,95.438,541.194,538.341,0.0
49724.0,STARLINK-3219,PAYLOAD,2022-05-06 14:00:01,15.08831335,0.0001816,53.2129,327.9165,51.9909,212.4211,0.00079085,0.00012318,0.0,0 STARLINK-3219,1 49724U 21115A   22126.58334491  .00012318  00000-0  79085-3 0  9993,2 49724  53.2129 327.9165 0001816  51.9909 212.4211 15.08831335 24828,6917.906999999997,95.438,541.028,538.516,0.0
49724.0,STARLINK-3219,PAYLOAD,2022-05-07 14:00:01,15.08830186,0.0001783,53.2126,323.4271,50.368,248.8108,0.00047776,7.322e-05,0.0,0 STARLINK-3219,1 49724U 21115A   22127.58334491  .00007322  00000-0  47776-3 0  9995,2 49724  53.2126 323.4271 0001783  50.3680 248.8108 15.08830186 24973,6917.91,95.438,541.009,538.5419999999998,0.0
49724.0,STARLINK-3219,PAYLOAD,2022-05-07 22:00:00,15.08816371,0.0001988,53.2126,321.9325,44.5809,266.1895,0.0022629,0.00035887,0.0,0 STARLINK-3219,1 49724U 21115A   22127.91667824  .00035887  00000-0  22629-2 0  9997,2 49724  53.2126 321.9325 0001988  44.5809 266.1895 15.08816371  3592,6917.953,95.439,541.193,538.442,0.0
49724.0,STARLINK-3219,PAYLOAD,2022-05-08 14:00:01,15.0885169,0.0001936,53.2126,318.9377,51.9201,282.0265,-0.0022059,-0.00035236,0.0,0 STARLINK-3219,1 49724U 21115A   22128.58334491 -.00035236  00000-0 -22059-2 0  9999,2 49724  53.2126 318.9377 0001936  51.9201 282.0265 15.08851690  3609,6917.845,95.437,541.049,538.37,0.0
49724.0,STARLINK-3219,PAYLOAD,2022-05-08 22:00:00,15.08808312,0.0002159,53.2126,317.443,47.5816,297.9657,0.0026507,0.00042114,0.0,0 STARLINK-3219,1 49724U 21115A   22128.91667824  .00042114  00000-0  26507-2 0  9998,2 49724  53.2126 317.4430 0002159  47.5816 297.9657 15.08808312 25173,6917.977,95.44,541.336,538.349,0.0
49724.0,STARLINK-3219,PAYLOAD,2022-05-09 14:00:01,15.08857388,0.0002042,53.2128,314.4484,52.305,316.4705,-4.7123e-05,-1.039e-05,0.0,0 STARLINK-3219,1 49724U 21115A   22129.58335648 -.00001039  00000-0 -47123-4 0  9990,2 49724  53.2128 314.4484 0002042  52.3050 316.4705 15.08857388 25275,6917.8269999999975,95.436,541.105,538.28,0.0
49724.0,STARLINK-3219,PAYLOAD,2022-05-09 22:00:00,15.088431,0.0002183,53.2128,312.9535,46.6717,333.6597,0.0001313,1.802e-05,0.0,0 STARLINK-3219,1 49724U 21115A   22129.91667824  .00001802  00000-0  13130-3 0  9997,2 49724  53.2128 312.9535 0002183  46.6717 333.6597 15.08843100  3573,6917.871,95.437,541.246,538.226,0.0
49724.0,STARLINK-3219,PAYLOAD,2022-05-10 14:00:01,15.08871428,0.0001977,53.2131,309.9589,49.6018,353.9176,-0.0034024,-0.00054079,0.0,0 STARLINK-3219,1 49724U 21115A   22130.58334491 -.00054079  00000-0 -34024-2 0  9993,2 49724  53.2131 309.9589 0001977  49.6018 353.9176 15.08871428 25429,6917.784000000002,95.436,541.0169999999998,538.2819999999998,0.0
49724.0,STARLINK-3219,PAYLOAD,2022-05-10 18:00:00,15.08826493,0.0002035,53.2128,309.2117,46.3547,182.9435,-0.00044224,-7.317e-05,0.0,0 STARLINK-3219,1 49724U 21115A   22130.75001157 -.00007317  00000-0 -44224-3 0  9999,2 49724  53.2128 309.2117 0002035  46.3547 182.9435 15.08826493  3585,6917.922,95.438,541.194,538.379,0.0
